[
    {
        "Altitude(m)": 707248.1960302595,
        "Argument of Periapsis(deg)": 0.007973084830638947,
        "Eccentricity": 0.0,
        "Inclination(deg)": 45.0,
        "Latitude(deg)": -17.29604867389722,
        "Longitude(deg)": -138.5746241676407,
        "Mean Anomaly(deg)": -24.654048346763382,
        "RAAN(deg)": 339.9924736409793,
        "Satellite Name": "Constellation 1 1516",
        "Satellite Number": 1516,
        "Semi-Major Axis(m)": 7083131.272910544,
        "Time(s)": 133
    },
    {
        "Altitude(m)": 707235.7211239588,
        "Argument of Periapsis(deg)": 0.008033032836884352,
        "Eccentricity": 0.0,
        "Inclination(deg)": 45.0,
        "Latitude(deg)": -17.255023391382185,
        "Longitude(deg)": -138.53179899906743,
        "Mean Anomaly(deg)": -24.593347206513542,
        "RAAN(deg)": 339.9924170518137,
        "Satellite Name": "Constellation 1 1516",
        "Satellite Number": 1516,
        "Semi-Major Axis(m)": 7083131.272910544,
        "Time(s)": 134
    },
    {
        "Altitude(m)": 707223.2571286772,
        "Argument of Periapsis(deg)": 0.008092980843129758,
        "Eccentricity": 0.0,
        "Inclination(deg)": 45.0,
        "Latitude(deg)": -17.213986897060234,
        "Longitude(deg)": -138.4889944554767,
        "Mean Anomaly(deg)": -24.532646066263705,
        "RAAN(deg)": 339.99236046264815,
        "Satellite Name": "Constellation 1 1516",
        "Satellite Number": 1516,
        "Semi-Major Axis(m)": 7083131.272910544,
        "Time(s)": 135
    },
    {
        "Altitude(m)": 707210.8040834616,
        "Argument of Periapsis(deg)": 0.008152928849375162,
        "Eccentricity": 0.0,
        "Inclination(deg)": 45.0,
        "Latitude(deg)": -17.17293922358001,
        "Longitude(deg)": -138.44621048104682,
        "Mean Anomaly(deg)": -24.471944926013666,
        "RAAN(deg)": 339.99230387348257,
        "Satellite Name": "Constellation 1 1516",
        "Satellite Number": 1516,
        "Semi-Major Axis(m)": 7083131.272910544,
        "Time(s)": 136
    },
    {
        "Altitude(m)": 707198.3620273073,
        "Argument of Periapsis(deg)": 0.008212876855620568,
        "Eccentricity": 0.0,
        "Inclination(deg)": 45.0,
        "Latitude(deg)": -17.131880403550532,
        "Longitude(deg)": -138.4034470199865,
        "Mean Anomaly(deg)": -24.41124378576383,
        "RAAN(deg)": 339.992247284317,
        "Satellite Name": "Constellation 1 1516",
        "Satellite Number": 1516,
        "Semi-Major Axis(m)": 7083131.272910544,
        "Time(s)": 137
    },
    {
        "Altitude(m)": 707185.9309991464,
        "Argument of Periapsis(deg)": 0.008272824861865974,
        "Eccentricity": 0.0,
        "Inclination(deg)": 45.0,
        "Latitude(deg)": -17.09081046954069,
        "Longitude(deg)": -138.36070401653453,
        "Mean Anomaly(deg)": -24.350542645513997,
        "RAAN(deg)": 339.9921906951514,
        "Satellite Name": "Constellation 1 1516",
        "Satellite Number": 1516,
        "Semi-Major Axis(m)": 7083131.272910544,
        "Time(s)": 138
    },
    {
        "Altitude(m)": 707173.5110378593,
        "Argument of Periapsis(deg)": 0.00833277286811138,
        "Eccentricity": 0.0,
        "Inclination(deg)": 45.0,
        "Latitude(deg)": -17.049729454079653,
        "Longitude(deg)": -138.31798141495975,
        "Mean Anomaly(deg)": -24.28984150526401,
        "RAAN(deg)": 339.9921341059859,
        "Satellite Name": "Constellation 1 1516",
        "Satellite Number": 1516,
        "Semi-Major Axis(m)": 7083131.272910544,
        "Time(s)": 139
    },
    {
        "Altitude(m)": 707161.1021822607,
        "Argument of Periapsis(deg)": 0.008392720874356788,
        "Eccentricity": 0.0,
        "Inclination(deg)": 45.0,
        "Latitude(deg)": -17.00863738965713,
        "Longitude(deg)": -138.27527915956136,
        "Mean Anomaly(deg)": -24.22914036501407,
        "RAAN(deg)": 339.9920775168203,
        "Satellite Name": "Constellation 1 1516",
        "Satellite Number": 1516,
        "Semi-Major Axis(m)": 7083131.272910544,
        "Time(s)": 140
    },
    {
        "Altitude(m)": 707148.7044711177,
        "Argument of Periapsis(deg)": 0.008452668880602192,
        "Eccentricity": 0.0,
        "Inclination(deg)": 45.0,
        "Latitude(deg)": -16.967534308723092,
        "Longitude(deg)": -138.23259736276594,
        "Mean Anomaly(deg)": -24.168439224764235,
        "RAAN(deg)": 339.9920209276547,
        "Satellite Name": "Constellation 1 1516",
        "Satellite Number": 1516,
        "Semi-Major Axis(m)": 7083131.272910544,
        "Time(s)": 141
    },
    {
        "Altitude(m)": 707136.3179431289,
        "Argument of Periapsis(deg)": 0.008512616886847598,
        "Eccentricity": 0.0,
        "Inclination(deg)": 45.0,
        "Latitude(deg)": -16.92642024368869,
        "Longitude(deg)": -138.18993563273875,
        "Mean Anomaly(deg)": -24.10773808451435,
        "RAAN(deg)": 339.99196433848914,
        "Satellite Name": "Constellation 1 1516",
        "Satellite Number": 1516,
        "Semi-Major Axis(m)": 7083131.272910544,
        "Time(s)": 142
    },
    {
        "Altitude(m)": 707123.9426369421,
        "Argument of Periapsis(deg)": 0.008572564893093004,
        "Eccentricity": 0.0,
        "Inclination(deg)": 45.0,
        "Latitude(deg)": -16.885295226925212,
        "Longitude(deg)": -138.14729408196663,
        "Mean Anomaly(deg)": -24.04703694426446,
        "RAAN(deg)": 339.99190774932356,
        "Satellite Name": "Constellation 1 1516",
        "Satellite Number": 1516,
        "Semi-Major Axis(m)": 7083131.272910544,
        "Time(s)": 143
    },
    {
        "Altitude(m)": 707111.5785911486,
        "Argument of Periapsis(deg)": 0.008632512899338408,
        "Eccentricity": 0.0,
        "Inclination(deg)": 45.0,
        "Latitude(deg)": -16.84415929076487,
        "Longitude(deg)": -138.10467265486957,
        "Mean Anomaly(deg)": -23.986335804014523,
        "RAAN(deg)": 339.99185116015803,
        "Satellite Name": "Constellation 1 1516",
        "Satellite Number": 1516,
        "Semi-Major Axis(m)": 7083131.272910544,
        "Time(s)": 144
    },
    {
        "Altitude(m)": 707099.2258442717,
        "Argument of Periapsis(deg)": 0.008692460905583814,
        "Eccentricity": 0.0,
        "Inclination(deg)": 45.0,
        "Latitude(deg)": -16.803012467501073,
        "Longitude(deg)": -138.06207129589782,
        "Mean Anomaly(deg)": -23.92563466376469,
        "RAAN(deg)": 339.99179457099245,
        "Satellite Name": "Constellation 1 1516",
        "Satellite Number": 1516,
        "Semi-Major Axis(m)": 7083131.272910544,
        "Time(s)": 145
    },
    {
        "Altitude(m)": 707086.8844347885,
        "Argument of Periapsis(deg)": 0.00875240891182922,
        "Eccentricity": 0.0,
        "Inclination(deg)": 45.0,
        "Latitude(deg)": -16.761854789387996,
        "Longitude(deg)": -138.0194899495317,
        "Mean Anomaly(deg)": -23.864933523514704,
        "RAAN(deg)": 339.9917379818269,
        "Satellite Name": "Constellation 1 1516",
        "Satellite Number": 1516,
        "Semi-Major Axis(m)": 7083131.272910544,
        "Time(s)": 146
    },
    {
        "Altitude(m)": 707074.5544011074,
        "Argument of Periapsis(deg)": 0.008812356918074627,
        "Eccentricity": 0.0,
        "Inclination(deg)": 45.0,
        "Latitude(deg)": -16.720686288641343,
        "Longitude(deg)": -137.97692856028212,
        "Mean Anomaly(deg)": -23.804232383264914,
        "RAAN(deg)": 339.9916813926613,
        "Satellite Name": "Constellation 1 1516",
        "Satellite Number": 1516,
        "Semi-Major Axis(m)": 7083131.272910544,
        "Time(s)": 147
    },
    {
        "Altitude(m)": 707062.235781587,
        "Argument of Periapsis(deg)": 0.008872304924320031,
        "Eccentricity": 0.0,
        "Inclination(deg)": 45.0,
        "Latitude(deg)": -16.679506997437432,
        "Longitude(deg)": -137.93438724078672,
        "Mean Anomaly(deg)": -23.743531243014978,
        "RAAN(deg)": 339.9916248034957,
        "Satellite Name": "Constellation 1 1516",
        "Satellite Number": 1516,
        "Semi-Major Axis(m)": 7083131.272910544,
        "Time(s)": 148
    },
    {
        "Altitude(m)": 707049.9286145149,
        "Argument of Periapsis(deg)": 0.008932252930565437,
        "Eccentricity": 0.0,
        "Inclination(deg)": 45.0,
        "Latitude(deg)": -16.63831694791507,
        "Longitude(deg)": -137.89186559942254,
        "Mean Anomaly(deg)": -23.682830102765042,
        "RAAN(deg)": 339.9915682143302,
        "Satellite Name": "Constellation 1 1516",
        "Satellite Number": 1516,
        "Semi-Major Axis(m)": 7083131.272910544,
        "Time(s)": 149
    },
    {
        "Altitude(m)": 707037.6329381296,
        "Argument of Periapsis(deg)": 0.008992200936810843,
        "Eccentricity": 0.0,
        "Inclination(deg)": 45.0,
        "Latitude(deg)": -16.59711617217377,
        "Longitude(deg)": -137.8493637488881,
        "Mean Anomaly(deg)": -23.622128962515152,
        "RAAN(deg)": 339.9915116251646,
        "Satellite Name": "Constellation 1 1516",
        "Satellite Number": 1516,
        "Semi-Major Axis(m)": 7083131.272910544,
        "Time(s)": 150
    },
    {
        "Altitude(m)": 707025.3487906046,
        "Argument of Periapsis(deg)": 0.009052148943056249,
        "Eccentricity": 0.0,
        "Inclination(deg)": 45.0,
        "Latitude(deg)": -16.555904702274802,
        "Longitude(deg)": -137.8068816338149,
        "Mean Anomaly(deg)": -23.56142782226532,
        "RAAN(deg)": 339.991455035999,
        "Satellite Name": "Constellation 1 1516",
        "Satellite Number": 1516,
        "Semi-Major Axis(m)": 7083131.272910544,
        "Time(s)": 151
    }
]